[{"OBJECT_NAME":"USA 283","OBJECT_ID":"2018-036A","EPOCH":"2026-04-26T17:37:41.104992","MEAN_MOTION":1.00270918,"ECCENTRICITY":1.91e-5,"INCLINATION":0.016,"RA_OF_ASC_NODE":226.8039,"ARG_OF_PERICENTER":230.7644,"MEAN_ANOMALY":155.674,"EPHEMERIS_TYPE":0,"CLASSIFICATION_TYPE":"U","NORAD_CAT_ID":43339,"ELEMENT_SET_NO":999,"REV_AT_EPOCH":2477,"BSTAR":0,"MEAN_MOTION_DOT":0,"MEAN_MOTION_DDOT":0},{"OBJECT_NAME":"COSMOS 2526","OBJECT_ID":"2018-037A","EPOCH":"2026-04-26T07:19:50.102400","MEAN_MOTION":1.00271015,"ECCENTRICITY":7.099e-5,"INCLINATION":0.0215,"RA_OF_ASC_NODE":115.5722,"ARG_OF_PERICENTER":20.4919,"MEAN_ANOMALY":316.2683,"EPHEMERIS_TYPE":0,"CLASSIFICATION_TYPE":"U","NORAD_CAT_ID":43432,"ELEMENT_SET_NO":999,"REV_AT_EPOCH":2943,"BSTAR":0,"MEAN_MOTION_DOT":-3.57e-6,"MEAN_MOTION_DDOT":0},{"OBJECT_NAME":"APSTAR-6C","OBJECT_ID":"2018-041A","EPOCH":"2026-04-26T12:48:36.056160","MEAN_MOTION":1.00274036,"ECCENTRICITY":0.0002096,"INCLINATION":0.0438,"RA_OF_ASC_NODE":13.128,"ARG_OF_PERICENTER":348.4396,"MEAN_ANOMALY":179.1192,"EPHEMERIS_TYPE":0,"CLASSIFICATION_TYPE":"U","NORAD_CAT_ID":43450,"ELEMENT_SET_NO":999,"REV_AT_EPOCH":2929,"BSTAR":0,"MEAN_MOTION_DOT":-3.3e-6,"MEAN_MOTION_DDOT":0},{"OBJECT_NAME":"BANGABANDHUSAT-1","OBJECT_ID":"2018-044A","EPOCH":"2026-04-27T00:32:38.781312","MEAN_MOTION":1.00271751,"ECCENTRICITY":0.0002118,"INCLINATION":0.029,"RA_OF_ASC_NODE":71.2531,"ARG_OF_PERICENTER":325.4424,"MEAN_ANOMALY":305.5822,"EPHEMERIS_TYPE":0,"CLASSIFICATION_TYPE":"U","NORAD_CAT_ID":43463,"ELEMENT_SET_NO":999,"REV_AT_EPOCH":2919,"BSTAR":0,"MEAN_MOTION_DOT":-3.73e-6,"MEAN_MOTION_DDOT":0},{"OBJECT_NAME":"SES-12","OBJECT_ID":"2018-049A","EPOCH":"2026-04-27T04:51:21.769920","MEAN_MOTION":1.00267712,"ECCENTRICITY":0.0001174,"INCLINATION":0.0151,"RA_OF_ASC_NODE":63.1819,"ARG_OF_PERICENTER":246.1967,"MEAN_ANOMALY":73.6621,"EPHEMERIS_TYPE":0,"CLASSIFICATION_TYPE":"U","NORAD_CAT_ID":43488,"ELEMENT_SET_NO":999,"REV_AT_EPOCH":2890,"BSTAR":0,"MEAN_MOTION_DOT":0,"MEAN_MOTION_DDOT":0},{"OBJECT_NAME":"FENGYUN 2H","OBJECT_ID":"2018-050A","EPOCH":"2026-04-27T00:12:41.004288","MEAN_MOTION":1.00274296,"ECCENTRICITY":0.0001673,"INCLINATION":2.9019,"RA_OF_ASC_NODE":79.6483,"ARG_OF_PERICENTER":158.5665,"MEAN_ANOMALY":59.218,"EPHEMERIS_TYPE":0,"CLASSIFICATION_TYPE":"U","NORAD_CAT_ID":43491,"ELEMENT_SET_NO":999,"REV_AT_EPOCH":2892,"BSTAR":0,"MEAN_MOTION_DOT":-1.38e-6,"MEAN_MOTION_DDOT":0},{"OBJECT_NAME":"TELSTAR 19V","OBJECT_ID":"2018-059A","EPOCH":"2026-04-27T04:27:38.602944","MEAN_MOTION":1.00270633,"ECCENTRICITY":0.0001747,"INCLINATION":0.0202,"RA_OF_ASC_NODE":183.274,"ARG_OF_PERICENTER":263.6152,"MEAN_ANOMALY":132.1896,"EPHEMERIS_TYPE":0,"CLASSIFICATION_TYPE":"U","NORAD_CAT_ID":43562,"ELEMENT_SET_NO":999,"REV_AT_EPOCH":2863,"BSTAR":0,"MEAN_MOTION_DOT":-2.9e-6,"MEAN_MOTION_DDOT":0},{"OBJECT_NAME":"TELKOM 4 (MERAH PUTIH)","OBJECT_ID":"2018-064A","EPOCH":"2026-04-27T02:53:38.567328","MEAN_MOTION":1.00272132,"ECCENTRICITY":0.0002125,"INCLINATION":0.0148,"RA_OF_ASC_NODE":242.3065,"ARG_OF_PERICENTER":185.3477,"MEAN_ANOMALY":298.8674,"EPHEMERIS_TYPE":0,"CLASSIFICATION_TYPE":"U","NORAD_CAT_ID":43587,"ELEMENT_SET_NO":999,"REV_AT_EPOCH":2836,"BSTAR":0,"MEAN_MOTION_DOT":-3.54e-6,"MEAN_MOTION_DDOT":0},{"OBJECT_NAME":"TELSTAR 18V","OBJECT_ID":"2018-069A","EPOCH":"2026-04-26T22:46:49.239264","MEAN_MOTION":1.00271937,"ECCENTRICITY":0.0002026,"INCLINATION":0.0144,"RA_OF_ASC_NODE":266.5213,"ARG_OF_PERICENTER":118.744,"MEAN_ANOMALY":309.3871,"EPHEMERIS_TYPE":0,"CLASSIFICATION_TYPE":"U","NORAD_CAT_ID":43611,"ELEMENT_SET_NO":999,"REV_AT_EPOCH":2812,"BSTAR":0,"MEAN_MOTION_DOT":-3.05e-6,"MEAN_MOTION_DDOT":0},{"OBJECT_NAME":"AZERSPACE 2 (IS-38)","OBJECT_ID":"2018-074A","EPOCH":"2026-04-27T04:48:38.757312","MEAN_MOTION":1.00270976,"ECCENTRICITY":0.0001444,"INCLINATION":0.0215,"RA_OF_ASC_NODE":254.193,"ARG_OF_PERICENTER":133.4629,"MEAN_ANOMALY":304.8047,"EPHEMERIS_TYPE":0,"CLASSIFICATION_TYPE":"U","NORAD_CAT_ID":43632,"ELEMENT_SET_NO":999,"REV_AT_EPOCH":2793,"BSTAR":0,"MEAN_MOTION_DOT":1.26e-6,"MEAN_MOTION_DDOT":0},{"OBJECT_NAME":"HORIZONS-3E","OBJECT_ID":"2018-074B","EPOCH":"2026-04-27T02:34:38.741376","MEAN_MOTION":1.0027131,"ECCENTRICITY":6.66e-5,"INCLINATION":0.0414,"RA_OF_ASC_NODE":73.903,"ARG_OF_PERICENTER":260.1791,"MEAN_ANOMALY":88.6672,"EPHEMERIS_TYPE":0,"CLASSIFICATION_TYPE":"U","NORAD_CAT_ID":43633,"ELEMENT_SET_NO":999,"REV_AT_EPOCH":2782,"BSTAR":0,"MEAN_MOTION_DOT":-4.1e-7,"MEAN_MOTION_DDOT":0},{"OBJECT_NAME":"BEIDOU-3 G1","OBJECT_ID":"2018-085A","EPOCH":"2026-04-27T05:16:54.339168","MEAN_MOTION":1.00265507,"ECCENTRICITY":0.0007393,"INCLINATION":2.9471,"RA_OF_ASC_NODE":98.7246,"ARG_OF_PERICENTER":333.3417,"MEAN_ANOMALY":22.2927,"EPHEMERIS_TYPE":0,"CLASSIFICATION_TYPE":"U","NORAD_CAT_ID":43683,"ELEMENT_SET_NO":999,"REV_AT_EPOCH":2754,"BSTAR":0,"MEAN_MOTION_DOT":-1.17e-6,"MEAN_MOTION_DDOT":0},{"OBJECT_NAME":"GSAT-29","OBJECT_ID":"2018-089A","EPOCH":"2026-04-27T04:40:38.534880","MEAN_MOTION":1.00271806,"ECCENTRICITY":0.000401,"INCLINATION":0.0718,"RA_OF_ASC_NODE":258.7576,"ARG_OF_PERICENTER":126.51,"MEAN_ANOMALY":315.1403,"EPHEMERIS_TYPE":0,"CLASSIFICATION_TYPE":"U","NORAD_CAT_ID":43698,"ELEMENT_SET_NO":999,"REV_AT_EPOCH":2727,"BSTAR":0,"MEAN_MOTION_DOT":7.5e-7,"MEAN_MOTION_DDOT":0},{"OBJECT_NAME":"ES'HAIL 2","OBJECT_ID":"2018-090A","EPOCH":"2026-04-26T13:41:25.247040","MEAN_MOTION":1.0027461,"ECCENTRICITY":0.0001354,"INCLINATION":0.0402,"RA_OF_ASC_NODE":76.1329,"ARG_OF_PERICENTER":345.0735,"MEAN_ANOMALY":24.5116,"EPHEMERIS_TYPE":0,"CLASSIFICATION_TYPE":"U","NORAD_CAT_ID":43700,"ELEMENT_SET_NO":999,"REV_AT_EPOCH":2715,"BSTAR":0,"MEAN_MOTION_DOT":1.32e-6,"MEAN_MOTION_DDOT":0},{"OBJECT_NAME":"GEO-KOMPSAT-2A","OBJECT_ID":"2018-100A","EPOCH":"2026-04-26T22:43:57.013824","MEAN_MOTION":1.00270973,"ECCENTRICITY":0.0002006,"INCLINATION":0.0568,"RA_OF_ASC_NODE":67.9377,"ARG_OF_PERICENTER":358.3688,"MEAN_ANOMALY":257.888,"EPHEMERIS_TYPE":0,"CLASSIFICATION_TYPE":"U","NORAD_CAT_ID":43823,"ELEMENT_SET_NO":999,"REV_AT_EPOCH":2711,"BSTAR":0,"MEAN_MOTION_DOT":-3.55e-6,"MEAN_MOTION_DDOT":0},{"OBJECT_NAME":"GSAT-11","OBJECT_ID":"2018-100B","EPOCH":"2026-04-27T00:52:21.689760","MEAN_MOTION":1.00272365,"ECCENTRICITY":0.0006978,"INCLINATION":0.0124,"RA_OF_ASC_NODE":247.4926,"ARG_OF_PERICENTER":182.5031,"MEAN_ANOMALY":232.1269,"EPHEMERIS_TYPE":0,"CLASSIFICATION_TYPE":"U","NORAD_CAT_ID":43824,"ELEMENT_SET_NO":999,"REV_AT_EPOCH":2696,"BSTAR":0,"MEAN_MOTION_DOT":-8.8e-7,"MEAN_MOTION_DDOT":0},{"OBJECT_NAME":"GSAT-7A","OBJECT_ID":"2018-105A","EPOCH":"2026-04-27T01:59:21.598368","MEAN_MOTION":1.00272393,"ECCENTRICITY":0.0002257,"INCLINATION":0.0521,"RA_OF_ASC_NODE":60.9181,"ARG_OF_PERICENTER":332.799,"MEAN_ANOMALY":273.9486,"EPHEMERIS_TYPE":0,"CLASSIFICATION_TYPE":"U","NORAD_CAT_ID":43864,"ELEMENT_SET_NO":999,"REV_AT_EPOCH":2693,"BSTAR":0,"MEAN_MOTION_DOT":1.6e-7,"MEAN_MOTION_DDOT":0},{"OBJECT_NAME":"COSMOS 2533","OBJECT_ID":"2018-107A","EPOCH":"2026-04-27T01:59:21.598368","MEAN_MOTION":1.00273056,"ECCENTRICITY":3.66e-5,"INCLINATION":0.044,"RA_OF_ASC_NODE":74.1859,"ARG_OF_PERICENTER":346.7981,"MEAN_ANOMALY":253.9233,"EPHEMERIS_TYPE":0,"CLASSIFICATION_TYPE":"U","NORAD_CAT_ID":43867,"ELEMENT_SET_NO":999,"REV_AT_EPOCH":2693,"BSTAR":0,"MEAN_MOTION_DOT":-4.9e-7,"MEAN_MOTION_DDOT":0},{"OBJECT_NAME":"TJS-3","OBJECT_ID":"2018-110A","EPOCH":"2026-04-26T18:34:26.682816","MEAN_MOTION":1.00762068,"ECCENTRICITY":0.0001024,"INCLINATION":2.4142,"RA_OF_ASC_NODE":81.0801,"ARG_OF_PERICENTER":23.1822,"MEAN_ANOMALY":162.7497,"EPHEMERIS_TYPE":0,"CLASSIFICATION_TYPE":"U","NORAD_CAT_ID":43874,"ELEMENT_SET_NO":999,"REV_AT_EPOCH":2690,"BSTAR":0,"MEAN_MOTION_DOT":-2.48e-6,"MEAN_MOTION_DDOT":0},{"OBJECT_NAME":"ZHONGXING-2D","OBJECT_ID":"2019-001A","EPOCH":"2026-04-27T00:27:09.616320","MEAN_MOTION":1.00269204,"ECCENTRICITY":8.98e-5,"INCLINATION":0.024,"RA_OF_ASC_NODE":326.1421,"ARG_OF_PERICENTER":15.3532,"MEAN_ANOMALY":10.3052,"EPHEMERIS_TYPE":0,"CLASSIFICATION_TYPE":"U","NORAD_CAT_ID":43920,"ELEMENT_SET_NO":999,"REV_AT_EPOCH":5356,"BSTAR":0,"MEAN_MOTION_DOT":-3.48e-6,"MEAN_MOTION_DDOT":0},{"OBJECT_NAME":"HELLAS-SAT 4 & SGS-1","OBJECT_ID":"2019-007A","EPOCH":"2026-04-27T01:43:54.752736","MEAN_MOTION":1.00278951,"ECCENTRICITY":0.0003528,"INCLINATION":0.071,"RA_OF_ASC_NODE":121.3422,"ARG_OF_PERICENTER":12.2298,"MEAN_ANOMALY":146.508,"EPHEMERIS_TYPE":0,"CLASSIFICATION_TYPE":"U","NORAD_CAT_ID":44034,"ELEMENT_SET_NO":999,"REV_AT_EPOCH":2685,"BSTAR":0,"MEAN_MOTION_DOT":1.42e-6,"MEAN_MOTION_DDOT":0},{"OBJECT_NAME":"GSAT-31","OBJECT_ID":"2019-007B","EPOCH":"2026-04-27T04:48:38.757312","MEAN_MOTION":1.00270657,"ECCENTRICITY":0.0002962,"INCLINATION":0.0277,"RA_OF_ASC_NODE":253.6468,"ARG_OF_PERICENTER":91.2295,"MEAN_ANOMALY":350.3439,"EPHEMERIS_TYPE":0,"CLASSIFICATION_TYPE":"U","NORAD_CAT_ID":44035,"ELEMENT_SET_NO":999,"REV_AT_EPOCH":2645,"BSTAR":0,"MEAN_MOTION_DOT":1.15e-6,"MEAN_MOTION_DDOT":0},{"OBJECT_NAME":"NUSANTARA SATU","OBJECT_ID":"2019-009A","EPOCH":"2026-04-26T22:49:04.024128","MEAN_MOTION":1.00270197,"ECCENTRICITY":0.000305,"INCLINATION":0.0388,"RA_OF_ASC_NODE":121.8063,"ARG_OF_PERICENTER":334.0267,"MEAN_ANOMALY":247.3874,"EPHEMERIS_TYPE":0,"CLASSIFICATION_TYPE":"U","NORAD_CAT_ID":44048,"ELEMENT_SET_NO":999,"REV_AT_EPOCH":2625,"BSTAR":0,"MEAN_MOTION_DOT":-2.46e-6,"MEAN_MOTION_DDOT":0},{"OBJECT_NAME":"ZHONGXING-6C","OBJECT_ID":"2019-012A","EPOCH":"2026-04-27T00:27:17.103744","MEAN_MOTION":1.00269773,"ECCENTRICITY":0.0011931,"INCLINATION":0.0165,"RA_OF_ASC_NODE":68.406,"ARG_OF_PERICENTER":332.2139,"MEAN_ANOMALY":311.6731,"EPHEMERIS_TYPE":0,"CLASSIFICATION_TYPE":"U","NORAD_CAT_ID":44067,"ELEMENT_SET_NO":999,"REV_AT_EPOCH":2622,"BSTAR":0,"MEAN_MOTION_DOT":0,"MEAN_MOTION_DDOT":0}]
